OBJECT_NAME,OBJECT_ID,EPOCH,MEAN_MOTION,ECCENTRICITY,INCLINATION,RA_OF_ASC_NODE,ARG_OF_PERICENTER,MEAN_ANOMALY,EPHEMERIS_TYPE,CLASSIFICATION_TYPE,NORAD_CAT_ID,ELEMENT_SET_NO,REV_AT_EPOCH,BSTAR,MEAN_MOTION_DOT,MEAN_MOTION_DDOT
SAUDISAT 1C (SO-50),2002-058C,2026-07-23T02:18:05.857632,14.83110516,.00742855,64.5523,17.8775,255.8289,103.4556,0,U,27607,999,26978,.12088401E-3,.878E-5,0
SAUDISAT 2,2004-025F,2026-07-23T05:28:21.717696,14.56701476,.00245935,98.5526,205.1444,183.1701,176.9344,0,U,28371,999,17099,.58424333E-4,.212E-5,0
SAUDISAT 3,2007-012B,2026-07-23T07:11:28.069152,14.71443732,.00159287,98.1471,154.7279,110.8048,249.4867,0,U,31118,999,3305,.45272218E-4,.23E-5,0
PISAT,2016-059B,2026-07-23T05:52:09.222816,14.69040708,.00305806,97.8196,203.1513,90.3402,270.1309,0,U,41784,999,52503,.15676961E-3,.879E-5,0
FLYING LAPTOP,2017-042G,2026-07-23T07:28:14.711232,15.01350719,.00191794,97.4850,358.4943,6.7641,353.3839,0,U,42831,999,49187,.25790654E-3,.3277E-4,0
SALSAT,2020-068K,2026-07-23T05:54:11.724192,15.30255611,.00100696,97.8868,209.5206,165.1541,194.9995,0,U,46495,999,32087,.25761612E-3,.7467E-4,0
